start=new Date('2021-12-16T00:00:00.000Z').valueOf();
sats=[{"PERIAPSIS":"545.974","RA_OF_ASC_NODE":"126.5438","TIME_SYSTEM":"UTC","MEAN_MOTION":"15.06402050","MEAN_ANOMALY":"260.5418","TLE_LINE1":"1 47406U 21005BK  21349.87757815 -.00000468  00000-0 -12531-4 0  9992","APOAPSIS":"548.441","ELEMENT_SET_NO":"999","TLE_LINE2":"2 47406  53.0551 126.5438 0001781  99.5772 260.5418 15.06402050 50629","OBJECT_ID":"2021-005BK","REV_AT_EPOCH":"5062","SEMIMAJOR_AXIS":"6925.342","SITE":"AFETR","DECAY_DATE":null,"ECCENTRICITY":"0.00017810","MEAN_ELEMENT_THEORY":"SGP4","MEAN_MOTION_DDOT":"0.0000000000000","ARG_OF_PERICENTER":"99.5772","CENTER_NAME":"EARTH","REF_FRAME":"TEME","CLASSIFICATION_TYPE":"U","EPHEMERIS_TYPE":"0","PERIOD":"95.592","NORAD_CAT_ID":"47406","MEAN_MOTION_DOT":"-0.00000468","OBJECT_NAME":"STARLINK-2133","INCLINATION":"53.0551","GP_ID":"191798103","OBJECT_TYPE":"PAYLOAD","RCS_SIZE":"LARGE","BSTAR":"-0.00001253100000","FILE":"3241542","COUNTRY_CODE":"US","EPOCH":"2021-12-15T21:03:42.752160","LAUNCH_DATE":"2021-01-20"},{"MEAN_MOTION_DDOT":"0.0000000000000","ECCENTRICITY":"0.00019300","DECAY_DATE":null,"MEAN_ELEMENT_THEORY":"SGP4","ARG_OF_PERICENTER":"94.6099","SITE":"AFETR","SEMIMAJOR_AXIS":"6925.361","OBJECT_ID":"2021-005BL","TLE_LINE2":"2 47407  53.0559 127.1252 0001930  94.6099 265.5110 15.06395943 50607","ELEMENT_SET_NO":"999","REV_AT_EPOCH":"5060","RA_OF_ASC_NODE":"127.1252","TIME_SYSTEM":"UTC","PERIAPSIS":"545.889","APOAPSIS":"548.563","MEAN_MOTION":"15.06395943","MEAN_ANOMALY":"265.5110","TLE_LINE1":"1 47407U 21005BL  21349.75224381  .00000955  00000-0  83009-4 0  9994","OBJECT_TYPE":"PAYLOAD","RCS_SIZE":"LARGE","EPOCH":"2021-12-15T18:03:13.865184","LAUNCH_DATE":"2021-01-20","COUNTRY_CODE":"US","FILE":"3241542","BSTAR":"0.00008300900000","GP_ID":"191798353","EPHEMERIS_TYPE":"0","CLASSIFICATION_TYPE":"U","INCLINATION":"53.0559","NORAD_CAT_ID":"47407","PERIOD":"95.592","MEAN_MOTION_DOT":"0.00000955","OBJECT_NAME":"STARLINK-2134","CENTER_NAME":"EARTH","REF_FRAME":"TEME"},{"DECAY_DATE":null,"ECCENTRICITY":"0.00019990","MEAN_ELEMENT_THEORY":"SGP4","MEAN_MOTION_DDOT":"0.0000000000000","ARG_OF_PERICENTER":"96.4079","SITE":"AFETR","SEMIMAJOR_AXIS":"6925.305","ELEMENT_SET_NO":"999","TLE_LINE2":"2 47408  53.0551 126.6438 0001999  96.4079 263.7138 15.06414223 50628","OBJECT_ID":"2021-005BM","REV_AT_EPOCH":"5062","PERIAPSIS":"545.786","TIME_SYSTEM":"UTC","RA_OF_ASC_NODE":"126.6438","MEAN_MOTION":"15.06414223","TLE_LINE1":"1 47408U 21005BM  21349.85545639  .00001485  00000-0  11854-3 0  9995","MEAN_ANOMALY":"263.7138","APOAPSIS":"548.554","OBJECT_TYPE":"PAYLOAD","RCS_SIZE":"LARGE","COUNTRY_CODE":"US","FILE":"3241542","BSTAR":"0.00011854000000","EPOCH":"2021-12-15T20:31:51.432096","LAUNCH_DATE":"2021-01-20","GP_ID":"191798605","CLASSIFICATION_TYPE":"U","EPHEMERIS_TYPE":"0","PERIOD":"95.591","MEAN_MOTION_DOT":"0.00001485","NORAD_CAT_ID":"47408","OBJECT_NAME":"STARLINK-2135","INCLINATION":"53.0551","CENTER_NAME":"EARTH","REF_FRAME":"TEME"},{"COUNTRY_CODE":"US","FILE":"3241546","BSTAR":"0.00376790000000","LAUNCH_DATE":"2021-01-24","EPOCH":"2021-12-16T03:23:35.624256","RCS_SIZE":"LARGE","OBJECT_TYPE":"PAYLOAD","GP_ID":"191801081","OBJECT_NAME":"STARLINK-2199","MEAN_MOTION_DOT":"0.03653768","PERIOD":"89.195","NORAD_CAT_ID":"47413","INCLINATION":"97.4677","CLASSIFICATION_TYPE":"U","EPHEMERIS_TYPE":"0","REF_FRAME":"TEME","CENTER_NAME":"EARTH","ARG_OF_PERICENTER":"306.6371","MEAN_ELEMENT_THEORY":"SGP4","DECAY_DATE":null,"ECCENTRICITY":"0.00027710","MEAN_MOTION_DDOT":"0.0277060000000","SEMIMAJOR_AXIS":"6612.847","SITE":"AFETR","REV_AT_EPOCH":"4982","ELEMENT_SET_NO":"999","TLE_LINE2":"2 47413  97.4677  52.7886 0002771 306.6371  53.7836 16.14432947 49826","OBJECT_ID":"2021-006A","MEAN_ANOMALY":"53.7836","TLE_LINE1":"1 47413U 21006A   21350.14138454  .03653768  27706-1  37679-2 0  9994","MEAN_MOTION":"16.14432947","APOAPSIS":"236.545","PERIAPSIS":"232.880","RA_OF_ASC_NODE":"52.7886","TIME_SYSTEM":"UTC"},{"GP_ID":"191797604","BSTAR":"0.00006783800000","FILE":"3241542","COUNTRY_CODE":"US","EPOCH":"2021-12-15T22:00:01.999584","LAUNCH_DATE":"2021-01-24","OBJECT_TYPE":"PAYLOAD","RCS_SIZE":"LARGE","REF_FRAME":"TEME","CENTER_NAME":"EARTH","MEAN_MOTION_DOT":"0.00019170","PERIOD":"90.583","NORAD_CAT_ID":"47414","OBJECT_NAME":"STARLINK-2200","INCLINATION":"97.4754","CLASSIFICATION_TYPE":"U","EPHEMERIS_TYPE":"0","SITE":"AFETR","SEMIMAJOR_AXIS":"6681.234","ARG_OF_PERICENTER":"207.0816","DECAY_DATE":null,"ECCENTRICITY":"0.00040340","MEAN_ELEMENT_THEORY":"SGP4","MEAN_MOTION_DDOT":"0.0000024443000","MEAN_MOTION":"15.89709419","MEAN_ANOMALY":"257.2591","TLE_LINE1":"1 47414U 21006B   21349.91668981  .00019170  24443-5  67838-4 0  9992","APOAPSIS":"305.794","PERIAPSIS":"300.404","TIME_SYSTEM":"UTC","RA_OF_ASC_NODE":"52.3503","REV_AT_EPOCH":"371","TLE_LINE2":"2 47414  97.4754  52.3503 0004034 207.0816 257.2591 15.89709419  3716","ELEMENT_SET_NO":"999","OBJECT_ID":"2021-006B"},{"REF_FRAME":"TEME","CENTER_NAME":"EARTH","INCLINATION":"97.5015","PERIOD":"90.581","NORAD_CAT_ID":"47415","MEAN_MOTION_DOT":"-0.00041978","OBJECT_NAME":"STARLINK-2201","EPHEMERIS_TYPE":"0","CLASSIFICATION_TYPE":"U","GP_ID":"191797854","EPOCH":"2021-12-15T22:00:01.999584","LAUNCH_DATE":"2021-01-24","BSTAR":"-0.00014043000000","FILE":"3241542","COUNTRY_CODE":"US","OBJECT_TYPE":"PAYLOAD","RCS_SIZE":"LARGE","APOAPSIS":"304.576","MEAN_MOTION":"15.89742227","TLE_LINE1":"1 47415U 21006C   21349.91668981 -.00041978  28997-5 -14043-3 0  9993","MEAN_ANOMALY":"165.4479","TIME_SYSTEM":"UTC","RA_OF_ASC_NODE":"47.9407","PERIAPSIS":"301.438","REV_AT_EPOCH":"367","OBJECT_ID":"2021-006C","ELEMENT_SET_NO":"999","TLE_LINE2":"2 47415  97.5015  47.9407 0002349 215.4966 165.4479 15.89742227  3671","SEMIMAJOR_AXIS":"6681.142","SITE":"AFETR","ARG_OF_PERICENTER":"215.4966","MEAN_MOTION_DDOT":"0.0000028997000","DECAY_DATE":null,"ECCENTRICITY":"0.00023490","MEAN_ELEMENT_THEORY":"SGP4"},{"GP_ID":"191799105","COUNTRY_CODE":"US","FILE":"3241542","BSTAR":"0.00633920000000","LAUNCH_DATE":"2021-01-24","EPOCH":"2021-12-15T22:00:01.999584","RCS_SIZE":"LARGE","OBJECT_TYPE":"PAYLOAD","REF_FRAME":"TEME","CENTER_NAME":"EARTH","OBJECT_NAME":"STARLINK-2202","PERIOD":"92.034","NORAD_CAT_ID":"47416","MEAN_MOTION_DOT":"0.00663517","INCLINATION":"97.4972","CLASSIFICATION_TYPE":"U","EPHEMERIS_TYPE":"0","SITE":"AFETR","SEMIMAJOR_AXIS":"6752.411","ARG_OF_PERICENTER":"216.7099","MEAN_ELEMENT_THEORY":"SGP4","DECAY_DATE":null,"ECCENTRICITY":"0.00015450","MEAN_MOTION_DDOT":"0.0000000000000","TLE_LINE1":"1 47416U 21006D   21349.91668981  .00663517  00000-0  63392-2 0  9991","MEAN_ANOMALY":"66.0762","MEAN_MOTION":"15.64640278","APOAPSIS":"375.319","PERIAPSIS":"373.232","RA_OF_ASC_NODE":"50.4285","TIME_SYSTEM":"UTC","REV_AT_EPOCH":"365","ELEMENT_SET_NO":"999","TLE_LINE2":"2 47416  97.4972  50.4285 0001545 216.7099  66.0762 15.64640278  3659","OBJECT_ID":"2021-006D"},{"OBJECT_TYPE":"PAYLOAD","RCS_SIZE":"LARGE","EPOCH":"2021-12-15T19:56:07.806624","LAUNCH_DATE":"2021-01-24","FILE":"3241055","BSTAR":"0.00312560000000","COUNTRY_CODE":"US","GP_ID":"191766798","EPHEMERIS_TYPE":"0","CLASSIFICATION_TYPE":"U","INCLINATION":"97.4773","PERIOD":"89.220","NORAD_CAT_ID":"47417","MEAN_MOTION_DOT":"0.03065191","OBJECT_NAME":"STARLINK-2203","CENTER_NAME":"EARTH","REF_FRAME":"TEME","MEAN_MOTION_DDOT":"0.0169090000000","DECAY_DATE":null,"ECCENTRICITY":"0.00048910","MEAN_ELEMENT_THEORY":"SGP4","ARG_OF_PERICENTER":"308.6298","SEMIMAJOR_AXIS":"6614.067","SITE":"AFETR","OBJECT_ID":"2021-006E","ELEMENT_SET_NO":"999","TLE_LINE2":"2 47417  97.4773  52.4255 0004891 308.6298  51.3693 16.13986273 49773","REV_AT_EPOCH":"4977","RA_OF_ASC_NODE":"52.4255","TIME_SYSTEM":"UTC","PERIAPSIS":"232.697","APOAPSIS":"239.167","MEAN_MOTION":"16.13986273","MEAN_ANOMALY":"51.3693","TLE_LINE1":"1 47417U 21006E   21349.83064591  .03065191  16909-1  31256-2 0  9997"},{"GP_ID":"191798104","EPOCH":"2021-12-15T22:00:01.999584","LAUNCH_DATE":"2021-01-24","FILE":"3241542","COUNTRY_CODE":"US","BSTAR":"0.00001218900000","OBJECT_TYPE":"PAYLOAD","RCS_SIZE":"LARGE","REF_FRAME":"TEME","CENTER_NAME":"EARTH","INCLINATION":"97.4993","PERIOD":"90.582","NORAD_CAT_ID":"47418","MEAN_MOTION_DOT":"0.00002842","OBJECT_NAME":"STARLINK-2204","EPHEMERIS_TYPE":"0","CLASSIFICATION_TYPE":"U","SEMIMAJOR_AXIS":"6681.195","SITE":"AFETR","ARG_OF_PERICENTER":"215.0628","MEAN_MOTION_DDOT":"0.0000023259000","ECCENTRICITY":"0.00021430","DECAY_DATE":null,"MEAN_ELEMENT_THEORY":"SGP4","APOAPSIS":"304.492","MEAN_MOTION":"15.89723267","TLE_LINE1":"1 47418U 21006F   21349.91668981  .00002842  23259-5  12189-4 0  9997","MEAN_ANOMALY":"160.4285","RA_OF_ASC_NODE":"47.9163","TIME_SYSTEM":"UTC","PERIAPSIS":"301.628","REV_AT_EPOCH":"367","OBJECT_ID":"2021-006F","ELEMENT_SET_NO":"999","TLE_LINE2":"2 47418  97.4993  47.9163 0002143 215.0628 160.4285 15.89723267  3673"},{"EPHEMERIS_TYPE":"0","CLASSIFICATION_TYPE":"U","INCLINATION":"97.4786","PERIOD":"90.582","NORAD_CAT_ID":"47419","MEAN_MOTION_DOT":"-0.00078592","OBJECT_NAME":"STARLINK-2205","CENTER_NAME":"EARTH","REF_FRAME":"TEME","OBJECT_TYPE":"PAYLOAD","RCS_SIZE":"LARGE","EPOCH":"2021-12-15T22:00:01.999584","LAUNCH_DATE":"2021-01-24","FILE":"3241199","COUNTRY_CODE":"US","BSTAR":"-0.00026536000000","GP_ID":"191769756","OBJECT_ID":"2021-006G","ELEMENT_SET_NO":"999","TLE_LINE2":"2 47419  97.4786  52.2972 0003758 206.6554 131.5674 15.89716441 49765","REV_AT_EPOCH":"4976","TIME_SYSTEM":"UTC","RA_OF_ASC_NODE":"52.2972","PERIAPSIS":"300.568","APOAPSIS":"305.590","MEAN_MOTION":"15.89716441","MEAN_ANOMALY":"131.5674","TLE_LINE1":"1 47419U 21006G   21349.91668981 -.00078592  43517-5 -26536-3 0  9994","MEAN_MOTION_DDOT":"0.0000043517000","DECAY_DATE":null,"ECCENTRICITY":"0.00037580","MEAN_ELEMENT_THEORY":"SGP4","ARG_OF_PERICENTER":"206.6554","SITE":"AFETR","SEMIMAJOR_AXIS":"6681.214"}];
